start=new Date('2021-09-28T00:00:00.000Z').valueOf();
sats=[{"COUNTRY_CODE":"US","PERIOD":"95.593","ELEMENT_SET_NO":"999","OBJECT_ID":"2020-057BJ","INCLINATION":"53.0559","RCS_SIZE":"LARGE","MEAN_ANOMALY":"258.5946","REV_AT_EPOCH":"6131","MEAN_MOTION_DDOT":"0.0000000000000","FILE":"3131463","CENTER_NAME":"EARTH","GP_ID":"185668083","APOAPSIS":"548.292","CLASSIFICATION_TYPE":"U","PERIAPSIS":"546.191","SITE":"AFETR","OBJECT_TYPE":"PAYLOAD","TLE_LINE1":"1 46173U 20057BJ  21270.85978539  .00000091  00000-0  24984-4 0  9992","RA_OF_ASC_NODE":"46.2772","LAUNCH_DATE":"2020-08-18","ARG_OF_PERICENTER":"101.5214","TLE_LINE2":"2 46173  53.0559  46.2772 0001517 101.5214 258.5946 15.06390754 61316","BSTAR":"0.00002498400000","MEAN_ELEMENT_THEORY":"SGP4","EPOCH":"2021-09-27T20:38:05.457696","SEMIMAJOR_AXIS":"6925.377","EPHEMERIS_TYPE":"0","DECAY_DATE":null,"TIME_SYSTEM":"UTC","ECCENTRICITY":"0.00015170","OBJECT_NAME":"STARLINK-1640","MEAN_MOTION_DOT":"0.00000091","NORAD_CAT_ID":"46173","MEAN_MOTION":"15.06390754","REF_FRAME":"TEME"},{"TLE_LINE2":"2 46174  53.0563  47.1298 0002294 152.4773 207.6338 15.06394841 61280","BSTAR":"-0.00014001000000","MEAN_ELEMENT_THEORY":"SGP4","EPOCH":"2021-09-27T16:02:02.893920","SEMIMAJOR_AXIS":"6925.364","LAUNCH_DATE":"2020-08-18","ARG_OF_PERICENTER":"152.4773","REF_FRAME":"TEME","NORAD_CAT_ID":"46174","MEAN_MOTION":"15.06394841","DECAY_DATE":null,"ECCENTRICITY":"0.00022940","TIME_SYSTEM":"UTC","EPHEMERIS_TYPE":"0","OBJECT_NAME":"STARLINK-1641","MEAN_MOTION_DOT":"-0.00002366","REV_AT_EPOCH":"6128","MEAN_ANOMALY":"207.6338","MEAN_MOTION_DDOT":"0.0000000000000","FILE":"3131463","CENTER_NAME":"EARTH","COUNTRY_CODE":"US","PERIOD":"95.592","ELEMENT_SET_NO":"999","OBJECT_ID":"2020-057BK","INCLINATION":"53.0563","RCS_SIZE":"LARGE","PERIAPSIS":"545.641","CLASSIFICATION_TYPE":"U","APOAPSIS":"548.818","SITE":"AFETR","RA_OF_ASC_NODE":"47.1298","TLE_LINE1":"1 46174U 20057BK  21270.66808905 -.00002366  00000-0 -14001-3 0  9998","OBJECT_TYPE":"PAYLOAD","GP_ID":"185668829"},{"PERIOD":"95.598","COUNTRY_CODE":"US","OBJECT_ID":"2020-062A","ELEMENT_SET_NO":"999","INCLINATION":"53.0551","RCS_SIZE":"LARGE","REV_AT_EPOCH":"6080","MEAN_ANOMALY":"261.7780","MEAN_MOTION_DDOT":"0.0000000000000","FILE":"3131463","CENTER_NAME":"EARTH","GP_ID":"185668841","APOAPSIS":"549.107","CLASSIFICATION_TYPE":"U","PERIAPSIS":"545.907","SITE":"AFETR","TLE_LINE1":"1 46325U 20062A   21270.87871505  .00017916  00000-0  12217-2 0  9992","RA_OF_ASC_NODE":"61.1944","OBJECT_TYPE":"PAYLOAD","LAUNCH_DATE":"2020-09-03","ARG_OF_PERICENTER":"98.3471","TLE_LINE2":"2 46325  53.0551  61.1944 0002310  98.3471 261.7780 15.06304266 60802","MEAN_ELEMENT_THEORY":"SGP4","BSTAR":"0.00122170000000","EPOCH":"2021-09-27T21:05:20.980320","SEMIMAJOR_AXIS":"6925.642","EPHEMERIS_TYPE":"0","DECAY_DATE":null,"TIME_SYSTEM":"UTC","ECCENTRICITY":"0.00023100","OBJECT_NAME":"STARLINK-1734","MEAN_MOTION_DOT":"0.00017916","NORAD_CAT_ID":"46325","MEAN_MOTION":"15.06304266","REF_FRAME":"TEME"},{"REF_FRAME":"TEME","NORAD_CAT_ID":"46326","MEAN_MOTION":"15.06392455","MEAN_MOTION_DOT":"-0.00000344","OBJECT_NAME":"STARLINK-1654","DECAY_DATE":null,"TIME_SYSTEM":"UTC","ECCENTRICITY":"0.00015370","EPHEMERIS_TYPE":"0","SEMIMAJOR_AXIS":"6925.372","EPOCH":"2021-09-27T20:28:46.710624","TLE_LINE2":"2 46326  53.0530 106.3056 0001537  78.9584 281.1578 15.06392455 59564","BSTAR":"-0.00000420100000","MEAN_ELEMENT_THEORY":"SGP4","ARG_OF_PERICENTER":"78.9584","LAUNCH_DATE":"2020-09-03","OBJECT_TYPE":"PAYLOAD","TLE_LINE1":"1 46326U 20062B   21270.85331841 -.00000344  00000-0 -42010-5 0  9991","RA_OF_ASC_NODE":"106.3056","SITE":"AFETR","CLASSIFICATION_TYPE":"U","PERIAPSIS":"546.172","APOAPSIS":"548.301","GP_ID":"185667593","CENTER_NAME":"EARTH","FILE":"3131463","MEAN_MOTION_DDOT":"0.0000000000000","MEAN_ANOMALY":"281.1578","REV_AT_EPOCH":"5956","RCS_SIZE":"LARGE","INCLINATION":"53.0530","ELEMENT_SET_NO":"999","OBJECT_ID":"2020-062B","COUNTRY_CODE":"US","PERIOD":"95.593"},{"GP_ID":"185667344","PERIAPSIS":"545.571","CLASSIFICATION_TYPE":"U","APOAPSIS":"548.840","SITE":"AFETR","TLE_LINE1":"1 46327U 20062C   21270.83213655  .00001251  00000-0  10287-3 0  9997","OBJECT_TYPE":"PAYLOAD","RA_OF_ASC_NODE":"106.4054","PERIOD":"95.592","COUNTRY_CODE":"US","ELEMENT_SET_NO":"999","OBJECT_ID":"2020-062C","INCLINATION":"53.0547","RCS_SIZE":"LARGE","MEAN_ANOMALY":"276.3057","REV_AT_EPOCH":"5955","MEAN_MOTION_DDOT":"0.0000000000000","FILE":"3131463","CENTER_NAME":"EARTH","DECAY_DATE":null,"ECCENTRICITY":"0.00023600","TIME_SYSTEM":"UTC","EPHEMERIS_TYPE":"0","OBJECT_NAME":"STARLINK-1673","MEAN_MOTION_DOT":"0.00001251","REF_FRAME":"TEME","NORAD_CAT_ID":"46327","MEAN_MOTION":"15.06402725","LAUNCH_DATE":"2020-09-03","ARG_OF_PERICENTER":"83.8201","MEAN_ELEMENT_THEORY":"SGP4","TLE_LINE2":"2 46327  53.0547 106.4054 0002360  83.8201 276.3057 15.06402725 59557","BSTAR":"0.00010287000000","EPOCH":"2021-09-27T19:58:16.597920","SEMIMAJOR_AXIS":"6925.340"},{"ARG_OF_PERICENTER":"96.4944","LAUNCH_DATE":"2020-09-03","SEMIMAJOR_AXIS":"6925.346","EPOCH":"2021-09-27T13:06:56.615040","BSTAR":"-0.00004025500000","TLE_LINE2":"2 46328  53.0534  87.6816 0001970  96.4944 263.6270 15.06400741 59798","MEAN_ELEMENT_THEORY":"SGP4","MEAN_MOTION_DOT":"-0.00000881","OBJECT_NAME":"STARLINK-1686","TIME_SYSTEM":"UTC","DECAY_DATE":null,"ECCENTRICITY":"0.00019700","EPHEMERIS_TYPE":"0","REF_FRAME":"TEME","MEAN_MOTION":"15.06400741","NORAD_CAT_ID":"46328","RCS_SIZE":"LARGE","INCLINATION":"53.0534","OBJECT_ID":"2020-062D","ELEMENT_SET_NO":"999","COUNTRY_CODE":"US","PERIOD":"95.592","CENTER_NAME":"EARTH","FILE":"3130990","MEAN_MOTION_DDOT":"0.0000000000000","MEAN_ANOMALY":"263.6270","REV_AT_EPOCH":"5979","GP_ID":"185635824","TLE_LINE1":"1 46328U 20062D   21270.54648860 -.00000881  00000-0 -40255-4 0  9995","OBJECT_TYPE":"PAYLOAD","RA_OF_ASC_NODE":"87.6816","SITE":"AFETR","PERIAPSIS":"545.847","CLASSIFICATION_TYPE":"U","APOAPSIS":"548.576"},{"EPHEMERIS_TYPE":"0","ECCENTRICITY":"0.00020680","DECAY_DATE":null,"TIME_SYSTEM":"UTC","OBJECT_NAME":"STARLINK-1695","MEAN_MOTION_DOT":"-0.00007663","NORAD_CAT_ID":"46329","MEAN_MOTION":"15.06436036","REF_FRAME":"TEME","LAUNCH_DATE":"2020-09-03","ARG_OF_PERICENTER":"76.0338","MEAN_ELEMENT_THEORY":"SGP4","TLE_LINE2":"2 46329  53.0544  86.6334 0002068  76.0338 284.0881 15.06436036 59829","BSTAR":"-0.00049555000000","EPOCH":"2021-09-27T18:41:17.964960","SEMIMAJOR_AXIS":"6925.238","GP_ID":"185668342","APOAPSIS":"548.535","PERIAPSIS":"545.671","CLASSIFICATION_TYPE":"U","SITE":"AFETR","TLE_LINE1":"1 46329U 20062E   21270.77868015 -.00007663  00000-0 -49555-3 0  9993","RA_OF_ASC_NODE":"86.6334","OBJECT_TYPE":"PAYLOAD","COUNTRY_CODE":"US","PERIOD":"95.590","OBJECT_ID":"2020-062E","ELEMENT_SET_NO":"999","INCLINATION":"53.0544","RCS_SIZE":"LARGE","MEAN_ANOMALY":"284.0881","REV_AT_EPOCH":"5982","MEAN_MOTION_DDOT":"0.0000000000000","FILE":"3131463","CENTER_NAME":"EARTH"},{"GP_ID":"185667094","TLE_LINE1":"1 46330U 20062F   21270.76763203  .00001941  00000-0  14918-3 0  9993","OBJECT_TYPE":"PAYLOAD","RA_OF_ASC_NODE":"86.6922","SITE":"AFETR","APOAPSIS":"548.649","PERIAPSIS":"545.756","CLASSIFICATION_TYPE":"U","RCS_SIZE":"LARGE","INCLINATION":"53.0535","ELEMENT_SET_NO":"999","OBJECT_ID":"2020-062F","PERIOD":"95.592","COUNTRY_CODE":"US","CENTER_NAME":"EARTH","FILE":"3131463","MEAN_MOTION_DDOT":"0.0000000000000","MEAN_ANOMALY":"267.8282","REV_AT_EPOCH":"5983","MEAN_MOTION_DOT":"0.00001941","OBJECT_NAME":"STARLINK-1710","EPHEMERIS_TYPE":"0","TIME_SYSTEM":"UTC","DECAY_DATE":null,"ECCENTRICITY":"0.00020890","NORAD_CAT_ID":"46330","MEAN_MOTION":"15.06403640","REF_FRAME":"TEME","ARG_OF_PERICENTER":"92.2947","LAUNCH_DATE":"2020-09-03","SEMIMAJOR_AXIS":"6925.337","EPOCH":"2021-09-27T18:25:23.407392","BSTAR":"0.00014918000000","TLE_LINE2":"2 46330  53.0535  86.6922 0002089  92.2947 267.8282 15.06403640 59833","MEAN_ELEMENT_THEORY":"SGP4"},{"APOAPSIS":"548.494","PERIAPSIS":"545.626","CLASSIFICATION_TYPE":"U","OBJECT_TYPE":"PAYLOAD","TLE_LINE1":"1 46331U 20062G   21270.86899205 -.00012991  00000-0 -85361-3 0  9996","RA_OF_ASC_NODE":"106.2401","SITE":"AFETR","GP_ID":"185667844","MEAN_MOTION_DDOT":"0.0000000000000","REV_AT_EPOCH":"5956","MEAN_ANOMALY":"272.7160","CENTER_NAME":"EARTH","FILE":"3131463","OBJECT_ID":"2020-062G","ELEMENT_SET_NO":"999","COUNTRY_CODE":"US","PERIOD":"95.589","RCS_SIZE":"LARGE","INCLINATION":"53.0545","MEAN_MOTION":"15.06450044","NORAD_CAT_ID":"46331","REF_FRAME":"TEME","OBJECT_NAME":"STARLINK-1719","EPHEMERIS_TYPE":"0","DECAY_DATE":null,"TIME_SYSTEM":"UTC","ECCENTRICITY":"0.00020710","MEAN_MOTION_DOT":"-0.00012991","MEAN_ELEMENT_THEORY":"SGP4","TLE_LINE2":"2 46331  53.0545 106.2401 0002071  87.4066 272.7160 15.06450044 59565","BSTAR":"-0.00085361000000","SEMIMAJOR_AXIS":"6925.195","EPOCH":"2021-09-27T20:51:20.913120","ARG_OF_PERICENTER":"87.4066","LAUNCH_DATE":"2020-09-03"},{"SITE":"AFETR","OBJECT_TYPE":"PAYLOAD","TLE_LINE1":"1 46332U 20062H   21270.88005821  .00001416  00000-0  11395-3 0  9996","RA_OF_ASC_NODE":"106.1877","PERIAPSIS":"545.768","CLASSIFICATION_TYPE":"U","APOAPSIS":"548.642","GP_ID":"185668096","FILE":"3131463","CENTER_NAME":"EARTH","REV_AT_EPOCH":"5956","MEAN_ANOMALY":"274.4325","MEAN_MOTION_DDOT":"0.0000000000000","INCLINATION":"53.0526","RCS_SIZE":"LARGE","PERIOD":"95.592","COUNTRY_CODE":"US","ELEMENT_SET_NO":"999","OBJECT_ID":"2020-062H","REF_FRAME":"TEME","NORAD_CAT_ID":"46332","MEAN_MOTION":"15.06402634","MEAN_MOTION_DOT":"0.00001416","TIME_SYSTEM":"UTC","DECAY_DATE":null,"ECCENTRICITY":"0.00020750","EPHEMERIS_TYPE":"0","OBJECT_NAME":"STARLINK-1721","EPOCH":"2021-09-27T21:07:17.029344","SEMIMAJOR_AXIS":"6925.340","BSTAR":"0.00011395000000","TLE_LINE2":"2 46332  53.0526 106.1877 0002075  85.6901 274.4325 15.06402634 59567","MEAN_ELEMENT_THEORY":"SGP4","LAUNCH_DATE":"2020-09-03","ARG_OF_PERICENTER":"85.6901"}];
